satname,norad_id,inclination_deg,eccentricity,mean_motion_rev_per_day,perigee_km,apogee_km,l1,l2
STARLINK-1142,45093,53.0237,0.0008852,15.83462249,314.72839972985093,326.58794670451425,1 45093U 20006BB  25341.33336806  .00468662  00000+0  19926-2 0  9996,2 45093  53.0237 217.5282 0008852 177.0500 336.8268 15.83462249  5929
STARLINK-1152,45096,53.0455,0.0004737,15.27608262,479.71436698247726,486.214574515865,1 45096U 20006BE  25341.20686349  .00009878  00000+0  37336-3 0  9991,2 45096  53.0455 278.9701 0004737  18.4508 341.6661 15.27608262323407
STARLINK-1184,45098,53.0546,0.0001562,15.06393372,546.1501292603671,548.3136144959417,1 45098U 20006BG  25341.16023823 -.00001869  00000+0 -10660-3 0  9995,2 45098  53.0546 301.9994 0001562  81.9729 278.1437 15.06393372323072
STARLINK-1193,45100,53.0554,5.44e-05,15.06422892,546.7646629989567,547.5181332886741,1 45100U 20006BJ  25341.28922986  .00009569  00000+0  66001-3 0  9993,2 45100  53.0554 301.4178 0000544 103.5796 256.5254 15.06422892323097
STARLINK-1143,45179,53.0517,0.0004142,15.45168001,428.0641824849672,433.7047758783219,1 45179U 20012B   25341.30626147  .00101619  00000+0  20899-2 0  9992,2 45179  53.0517  55.5000 0004142 168.6788 191.4312 15.45168001321568
STARLINK-1202,45183,53.0549,0.0001748,15.06385734,546.0447229478486,548.4658400894668,1 45183U 20012F   25340.62208963  .00000709  00000+0  66530-4 0  9995,2 45183  53.0549 104.4174 0001748  66.0992 294.0180 15.06385734320812
STARLINK-1216,45185,53.0544,0.0001267,15.06403246,546.3241690318355,548.0790498354672,1 45185U 20012H   25341.07913402  .00000737  00000+0  68351-4 0  9992,2 45185  53.0544 102.3628 0001267  87.0100 273.1034 15.06403246320826
STARLINK-1225,45187,53.0558,0.0001108,15.06386216,546.4864709340472,548.021137536266,1 45187U 20012K   25341.29661584 -.00002479  00000+0 -14768-3 0  9998,2 45187  53.0558 101.3855 0001108  87.3511 272.7604 15.06386216320901
STARLINK-1230,45189,53.0547,0.0001291,15.06412553,546.2790275364241,548.0671426003892,1 45189U 20012M   25341.03488694  .00001898  00000+0  14624-3 0  9994,2 45189  53.0547 102.5644 0001291  86.9820 273.1317 15.06412553318098
STARLINK-1234,45190,53.0517,0.0005676,15.42041212,436.2157598939584,443.95580639738455,1 45190U 20012N   25341.23662573  .00025818  00000+0  60283-3 0  9998,2 45190  53.0517  50.2318 0005676 335.5314  24.5420 15.42041212321521
STARLINK-1269,45197,53.0546,0.0001228,15.06393679,546.3804957787079,548.0813661425518,1 45197U 20012V   25341.31134839 -.00000762  00000+0 -32307-4 0  9993,2 45197  53.0546 101.3204 0001228  93.5034 266.6096 15.06393679320884
STARLINK-1154,45198,53.0562,0.0001114,15.0640012,546.4397063672013,547.9826739439677,1 45198U 20012W   25341.30213379  .00000043  00000+0  21802-4 0  9998,2 45198  53.0562  81.3628 0001114  63.5198 296.5905 15.06400120321132
STARLINK-1199,45201,53.0564,0.000164,15.06391257,546.1025925455824,548.3741156617298,1 45201U 20012Z   25341.31319734  .00002155  00000+0  16356-3 0  9999,2 45201  53.0564  81.3144 0001640  95.0916 265.0261 15.06391257321196
STARLINK-1209,45206,53.0531,0.0006026,15.35468345,455.4093570048335,463.6501129538301,1 45206U 20012AE  25341.25014135  .00024512  00000+0  70944-3 0  9998,2 45206  53.0531  52.4158 0006026 340.1927  19.8840 15.35468345320640
STARLINK-1210,45207,53.022,0.0003281,15.65825585,368.6510846198735,373.07978001595984,1 45207U 20012AF  25340.09759494  .00084283  00000+0  81192-3 0  9992,2 45207  53.0220  12.6108 0003281 150.9257 209.1941 15.65825585322051
STARLINK-1231,45212,53.0512,0.00042,15.14753375,518.8294509751249,524.6253370661025,1 45212U 20012AL  25340.69380292  .00011004  00000+0  60184-3 0  9999,2 45212  53.0512  80.6294 0004200 147.4034 212.7218 15.14753375321101
STARLINK-1271,45217,53.0556,0.0001118,15.06390622,546.4660431245356,548.0145574888847,1 45217U 20012AR  25341.29845368  .00000920  00000+0  80629-4 0  9993,2 45217  53.0556  81.3779 0001118  81.4379 278.6737 15.06390622321193
STARLINK-1191,45222,53.0572,0.0001512,15.06403733,546.1530058824865,548.2472278266223,1 45222U 20012AW  25341.24131396  .00004115  00000+0  29498-3 0  9999,2 45222  53.0572  61.6343 0001512 100.1095 260.0065 15.06403733321464
STARLINK-1212,45223,53.0574,0.0001225,15.06391502,546.3892448178885,548.0859615956742,1 45223U 20012AX  25341.25983856  .00003468  00000+0  25164-3 0  9993,2 45223  53.0574  62.2044 0001225  87.3454 272.7676 15.06391502321466
STARLINK-1215,45225,53.0562,5.68e-05,15.06364551,546.9268401789932,547.7135721176119,1 45225U 20012AZ  25341.21553940 -.00000847  00000+0 -38018-4 0  9991,2 45225  53.0562  61.7498 0000568 122.1577 237.9467 15.06364551321415
STARLINK-1221,45227,53.0669,0.0005303,15.38321686,447.4504031137867,454.69346210771437,1 45227U 20012BB  25341.30705961  .00022979  00000+0  60767-3 0  9998,2 45227  53.0669 346.1585 0005303  76.2916 283.8677 15.38321686322477
STARLINK-1222,45228,53.0563,7.39e-05,15.1097524,532.713751968844,533.7352511987783,1 45228U 20012BC  25341.21669697  .00003412  00000+0  21946-3 0  9991,2 45228  53.0563  61.4102 0000739  71.0355 289.0716 15.10975240321350
STARLINK-1226,45229,53.0558,0.0001383,15.06394138,546.2717459919622,548.1873023725502,1 45229U 20012BD  25341.21183264  .00004794  00000+0  34056-3 0  9993,2 45229  53.0558  61.7684 0001383  95.3325 264.7822 15.06394138321359
STARLINK-1227,45230,53.0537,0.0001312,15.06391101,546.3302229166666,548.1474415350431,1 45230U 20012BE  25341.20814525  .00002683  00000+0  19901-3 0  9992,2 45230  53.0537  61.7823 0001312  86.1398 273.9741 15.06391101321475
STARLINK-1246,45235,53.0544,0.0001318,15.06401152,546.2952667518584,548.1207877010347,1 45235U 20012BK  25340.75845577  .00003691  00000+0  26655-3 0  9991,2 45235  53.0544 103.8016 0001318  85.2302 274.8838 15.06401152320857
STARLINK-1270,45237,53.0554,0.0001376,15.06401953,546.2526451430831,548.1584994189734,1 45237U 20012BM  25341.22657138  .00002825  00000+0  20848-3 0  9996,2 45237  53.0554  61.7015 0001376  92.6194 267.4953 15.06401953321469
STARLINK-1279,45360,53.049,0.0009388,15.39702,440.5823882276991,453.3972463398304,1 45360U 20019A   25341.12364388  .00012205  00000+0  31346-3 0  9999,2 45360  53.0490 181.6610 0009388 127.4703 232.7155 15.39702000316334
STARLINK-1301,45361,53.0485,0.0008924,15.42568269,432.44942125081343,444.61581318362187,1 45361U 20019B   25341.28364113  .00036925  00000+0  84126-3 0  9992,2 45361  53.0485 189.9406 0008924 123.0171 237.1693 15.42568269316246
STARLINK-1306,45362,53.038,0.0003173,15.84779136,314.822358151333,319.0710582725642,1 45362U 20019C   25341.33336806  .00299928  00000+0  12245-2 0  9993,2 45362  53.0380 169.9424 0003173  92.5019 163.0579 15.84779136  5991
STARLINK-1262,45366,53.0554,0.0001449,15.06397073,546.2170444803169,548.2240130921591,1 45366U 20019G   25341.07176933  .00001471  00000+0  11761-3 0  9998,2 45366  53.0554 222.3946 0001449 100.7275 259.3877 15.06397073315771
STARLINK-1273,45367,53.0525,0.0001564,15.06389617,546.1602510291214,548.3265100121489,1 45367U 20019H   25340.96119776  .00003447  00000+0  25025-3 0  9991,2 45367  53.0525 222.8877 0001564  88.0513 272.0655 15.06389617315758
STARLINK-1276,45368,53.0553,0.0001451,15.06394926,546.2222387289139,548.231979393362,1 45368U 20019J   25341.06440474  .00000542  00000+0  55274-4 0  9999,2 45368  53.0553 222.4292 0001451 101.7077 258.4075 15.06394926315775
STARLINK-1277,45369,53.0532,0.000147,15.06400235,546.1928115650762,548.2288638293585,1 45369U 20019K   25341.05709971  .00002943  00000+0  21639-3 0  9993,2 45369  53.0532 223.0881 0001470  79.4307 280.6847 15.06400235315766
STARLINK-1281,45370,53.0537,0.0001505,15.06390543,546.1982731127182,548.2828117529898,1 45370U 20019L   25341.05334455  .00000845  00000+0  75658-4 0  9996,2 45370  53.0537 222.4807 0001505  84.8485 275.2676 15.06390543315771
STARLINK-1300,45374,53.0537,0.0001808,15.06391017,545.9869816792898,548.4911976733165,1 45374U 20019Q   25340.94277435  .00007200  00000+0  50188-3 0  9993,2 45374  53.0537 222.9740 0001808 100.8715 259.2478 15.06391017315754
STARLINK-1302,45375,53.0535,0.0001169,15.06402617,546.3939649130052,548.0131095306078,1 45375U 20019R   25341.09019456 -.00000402  00000+0 -81286-5 0  9992,2 45375  53.0535 222.3146 0001169  89.6310 270.4813 15.06402617315771
STARLINK-1304,45376,53.053,0.0001611,15.06392767,546.1180489062554,548.3494033542147,1 45376U 20019S   25340.97592270 -.00001423  00000+0 -76668-4 0  9990,2 45376  53.0530 222.8218 0001611  58.3851 301.7295 15.06392767315751
STARLINK-1305,45377,53.0518,0.0008597,15.3625025,451.33308016771025,463.0857748151384,1 45377U 20019T   25341.04696442  .00022511  00000+0  63616-3 0  9993,2 45377  53.0518 213.1513 0008597 116.4972 243.6913 15.36250250315900
STARLINK-1319,45379,53.051,0.0007271,15.41144954,437.76951551867296,447.68841880812124,1 45379U 20019V   25340.95685361  .00023469  00000+0  56540-3 0  9993,2 45379  53.0510 214.7787 0007271 121.9909 238.1803 15.41144954315875
STARLINK-1266,45383,53.0546,0.0001721,15.0639785,546.0262937655925,548.4100010073216,1 45383U 20019Z   25341.06255301  .00001095  00000+0  92433-4 0  9991,2 45383  53.0546 202.4410 0001721 112.3927 247.7245 15.06397850316046
STARLINK-1267,45384,53.0538,0.0001534,15.06411839,546.1129304433125,548.2376162487753,1 45384U 20019AA  25340.91518541  .00003074  00000+0  22509-3 0  9998,2 45384  53.0538 203.7579 0001534  79.1006 281.0156 15.06411839316011
STARLINK-1272,45386,53.0509,0.0008903,15.39331648,442.0071056503348,454.16187563657513,1 45386U 20019AC  25341.30724000  .00015076  00000+0  38939-3 0  9992,2 45386  53.0509 191.3561 0008903 128.2224 231.9582 15.39331648316224
STARLINK-1274,45387,53.0332,0.0005413,15.33211119,462.5342674430922,469.94398903952697,1 45387U 20019AD  25341.27149486  .00021535  00000+0  67105-3 0  9992,2 45387  53.0332 180.2685 0005413  95.6658 264.4960 15.33211119316375
